NORAD_CAT_ID,OBJECT_NAME,OBJECT_TYPE,EPOCH,MEAN_MOTION,ECCENTRICITY,INCLINATION,RA_OF_ASC_NODE,ARG_OF_PERICENTER,MEAN_ANOMALY,BSTAR,MEAN_MOTION_DOT,MEAN_MOTION_DDOT,TLE_LINE0,TLE_LINE1,TLE_LINE2,SEMIMAJOR_AXIS,PERIOD,APOGEE,PERIGEE,DECAYED
52089.0,STARLINK-3722,PAYLOAD,2022-11-09 20:31:26,15.08822141,0.0001816,53.2147,147.203,44.3385,315.7752,-0.0004692,-7.744e-05,0.0,0 STARLINK-3722,1 52089U 22029B   22313.85516279 -.00007744  00000-0 -46920-3 0  9991,2 52089  53.2147 147.2030 0001816  44.3385 315.7752 15.08822141 37101,6917.935,95.439,541.056,538.544,0.0
52089.0,STARLINK-3722,PAYLOAD,2022-11-10 01:17:35,15.08823304,0.0001779,53.2153,146.3108,49.2387,310.876,-0.00026158,-4.447e-05,0.0,0 STARLINK-3722,1 52089U 22029B   22314.05388886 -.00004447  00000-0 -26158-3 0  9993,2 52089  53.2153 146.3108 0001779  49.2387 310.8760 15.08823304 37138,6917.931,95.439,541.0269999999998,538.566,0.0
52089.0,STARLINK-3722,PAYLOAD,2022-11-10 20:22:14,15.0882906,0.0001726,53.2166,142.7421,48.4051,311.7089,-7.4654e-05,-1.476e-05,0.0,0 STARLINK-3722,1 52089U 22029B   22314.84878096 -.00001476  00000-0 -74654-4 0  9991,2 52089  53.2166 142.7421 0001726  48.4051 311.7089 15.08829060 37253,6917.9140000000025,95.438,540.9730000000002,538.585,0.0
52089.0,STARLINK-3722,PAYLOAD,2022-11-11 05:54:33,15.08813732,0.0001062,53.2168,140.9582,55.2206,304.8886,0.00012727,1.737e-05,0.0,0 STARLINK-3722,1 52089U 22029B   22315.24622666  .00001737  00000-0  12727-3 0  9996,2 52089  53.2168 140.9582 0001062  55.2206 304.8886 15.08813732 37318,6917.9609999999975,95.439,540.56,539.091,0.0
52089.0,STARLINK-3722,PAYLOAD,2022-11-11 12:16:07,15.08807567,0.0001583,53.2168,139.7688,53.4727,306.6411,0.0002358,3.464e-05,0.0,0 STARLINK-3722,1 52089U 22029B   22315.51119477  .00003464  00000-0  23580-3 0  9995,2 52089  53.2168 139.7688 0001583  53.4727 306.6411 15.08807567 37354,6917.98,95.44,540.94,538.749,0.0
52089.0,STARLINK-3722,PAYLOAD,2022-11-11 18:37:38,15.08832993,0.0001846,53.2168,138.5795,45.0804,315.0337,0.00028246,4.209e-05,0.0,0 STARLINK-3722,1 52089U 22029B   22315.77613734  .00004209  00000-0  28246-3 0  9990,2 52089  53.2168 138.5795 0001846  45.0804 315.0337 15.08832993 37391,6917.901999999999,95.438,541.044,538.49,0.0
52089.0,STARLINK-3722,PAYLOAD,2022-11-11 20:13:01,15.08834019,0.0001852,53.2169,138.2823,44.9168,315.1974,0.00028862,4.308e-05,0.0,0 STARLINK-3722,1 52089U 22029B   22315.84237731  .00004308  00000-0  28862-3 0  9991,2 52089  53.2169 138.2823 0001852  44.9168 315.1974 15.08834019 37400,6917.899,95.438,541.045,538.482,0.0
52089.0,STARLINK-3722,PAYLOAD,2022-11-12 05:45:20,15.08840964,0.0001885,53.2169,136.498,45.8512,314.2635,0.00032174,4.836e-05,0.0,0 STARLINK-3722,1 52089U 22029B   22316.23981532  .00004836  00000-0  32174-3 0  9997,2 52089  53.2169 136.4980 0001885  45.8512 314.2635 15.08840964 37469,6917.877,95.437,541.0459999999998,538.438,0.0
52089.0,STARLINK-3722,PAYLOAD,2022-11-12 18:28:24,15.08852338,0.0001876,53.2169,134.1189,47.1419,312.9731,0.00033434,5.039e-05,0.0,0 STARLINK-3722,1 52089U 22029B   22316.76973023  .00005039  00000-0  33434-3 0  9997,2 52089  53.2169 134.1189 0001876  47.1419 312.9731 15.08852338 37545,6917.843000000003,95.437,541.005,538.41,0.0
52089.0,STARLINK-3722,PAYLOAD,2022-11-13 11:57:39,15.08852237,0.000198,53.216,130.84799999999998,47.1589,312.9569,0.0002339,3.438e-05,0.0,0 STARLINK-3722,1 52089U 22029B   22317.49837177  .00003438  00000-0  23390-3 0  9998,2 52089  53.2160 130.8480 0001980  47.1589 312.9569 15.08852237 37656,6917.843000000003,95.437,541.078,538.3380000000002,0.0
52089.0,STARLINK-3722,PAYLOAD,2022-11-13 18:19:12,15.088332199999998,0.0001831,53.2161,129.6584,47.77,312.3448,0.00032215,4.842e-05,0.0,0 STARLINK-3722,1 52089U 22029B   22317.76334074  .00004842  00000-0  32215-3 0  9992,2 52089  53.2161 129.6584 0001831  47.7700 312.3448 15.08833220 37699,6917.901,95.438,541.033,538.499,0.0
52089.0,STARLINK-3722,PAYLOAD,2022-11-14 11:48:26,15.08846447,0.0001882,53.2169,126.3872,44.9377,315.1768,-5.5455e-05,-1.171e-05,0.0,0 STARLINK-3722,1 52089U 22029B   22318.49197230 -.00001171  00000-0 -55455-4 0  9990,2 52089  53.2169 126.3872 0001882  44.9377 315.1768 15.08846447 37800,6917.861,95.437,541.028,538.424,0.0
52089.0,STARLINK-3722,PAYLOAD,2022-11-14 16:34:35,15.08846985,0.0001878,53.2171,125.4952,45.3988,314.7157,-6.114e-05,-1.261e-05,0.0,0 STARLINK-3722,1 52089U 22029B   22318.69069061 -.00001261  00000-0 -61140-4 0  9990,2 52089  53.2171 125.4952 0001878  45.3988 314.7157 15.08846985 37837,6917.859,95.437,541.023,538.425,0.0
52089.0,STARLINK-3722,PAYLOAD,2022-11-14 21:20:44,15.08846514,0.0001889,53.217,124.6031,48.0405,312.0748,-4.5049e-05,-1.005e-05,0.0,0 STARLINK-3722,1 52089U 22029B   22318.88940919 -.00001005  00000-0 -45049-4 0  9997,2 52089  53.2170 124.6031 0001889  48.0405 312.0748 15.08846514 37869,6917.86,95.437,541.0319999999998,538.419,0.0
52089.0,STARLINK-3722,PAYLOAD,2022-11-15 11:39:13,15.08829941,0.0001875,53.2171,121.9273,43.8448,316.2693,4.3877e-05,4.1e-06,0.0,0 STARLINK-3722,1 52089U 22029B   22319.48557356  .00000410  00000-0  43877-4 0  9997,2 52089  53.2171 121.9273 0001875  43.8448 316.2693 15.08829941 37953,6917.911,95.438,541.073,538.479,0.0
52089.0,STARLINK-3722,PAYLOAD,2022-11-15 14:50:00,15.08828332,0.000188,53.2171,121.3325,43.7362,316.3778,2.7598e-05,1.51e-06,0.0,0 STARLINK-3722,1 52089U 22029B   22319.61805589  .00000151  00000-0  27598-4 0  9990,2 52089  53.2171 121.3325 0001880  43.7362 316.3778 15.08828332 37975,6917.916,95.438,541.082,538.48,0.0
52089.0,STARLINK-3722,PAYLOAD,2022-11-15 16:25:23,15.08828007,0.0001884,53.2171,121.0352,43.6916,316.4225,2.3883e-05,9.2e-07,0.0,0 STARLINK-3722,1 52089U 22029B   22319.68429667  .00000092  00000-0  23883-4 0  9993,2 52089  53.2171 121.0352 0001884  43.6916 316.4225 15.08828007 37988,6917.917,95.438,541.085,538.479,0.0
52089.0,STARLINK-3722,PAYLOAD,2022-11-16 09:54:38,15.08821963,0.0001996,53.2172,117.7645,45.1962,314.9192,-6.4523e-05,-1.314e-05,0.0,0 STARLINK-3722,1 52089U 22029B   22320.41294865 -.00001314  00000-0 -64523-4 0  9992,2 52089  53.2172 117.7645 0001996  45.1962 314.9192 15.08821963 38091,6917.936,95.439,541.181,538.42,0.0
52089.0,STARLINK-3722,PAYLOAD,2022-11-16 17:51:34,15.08820017,0.0001964,53.2173,116.2777,45.9828,314.1326,-0.00010561,-1.968e-05,0.0,0 STARLINK-3722,1 52089U 22029B   22320.74415491 -.00001968  00000-0 -10561-3 0  9995,2 52089  53.2173 116.2777 0001964  45.9828 314.1326 15.08820017 38142,6917.941,95.439,541.165,538.448,0.0
52089.0,STARLINK-3722,PAYLOAD,2022-11-17 12:56:12,15.08826937,0.0002033,53.2177,112.7091,46.5549,313.5612,-1.6880000000000004e-06,-3.15e-06,0.0,0 STARLINK-3722,1 52089U 22029B   22321.53903517 -.00000315  00000-0 -16880-5 0  9991,2 52089  53.2177 112.7091 0002033  46.5549 313.5612 15.08826937 38262,6917.92,95.438,541.192,538.379,0.0
52089.0,STARLINK-3722,PAYLOAD,2022-11-17 19:17:44,15.08840227,0.000202,53.2181,111.5195,52.364,307.7535,0.00015141,2.122e-05,0.0,0 STARLINK-3722,1 52089U 22029B   22321.80398284  .00002122  00000-0  15141-3 0  9993,2 52089  53.2181 111.5195 0002020  52.3640 307.7535 15.08840227 38304,6917.88,95.438,541.1419999999998,538.347,0.0
52089.0,STARLINK-3722,PAYLOAD,2022-11-18 03:14:39,15.08844944,0.0002105,53.2176,110.0327,47.7669,312.3502,0.00015868,2.238e-05,0.0,0 STARLINK-3722,1 52089U 22029B   22322.13517983  .00002238  00000-0  15868-3 0  9993,2 52089  53.2176 110.0327 0002105  47.7669 312.3502 15.08844944 38353,6917.865,95.437,541.186,538.274,0.0
52089.0,STARLINK-3722,PAYLOAD,2022-11-18 09:36:11,15.08845121,0.0002156,53.2177,108.8435,46.8583,313.2589,0.00019565,2.827e-05,0.0,0 STARLINK-3722,1 52089U 22029B   22322.40013816  .00002827  00000-0  19565-3 0  9991,2 52089  53.2177 108.8435 0002156  46.8583 313.2589 15.08845121 38397,6917.865,95.437,541.221,538.238,0.0
52089.0,STARLINK-3722,PAYLOAD,2022-11-18 15:57:44,15.08841979,0.0002032,53.2175,107.6533,46.923,313.1932,0.00024104,3.55e-05,0.0,0 STARLINK-3722,1 52089U 22029B   22322.66509839  .00003550  00000-0  24104-3 0  9993,2 52089  53.2175 107.6533 0002032  46.9230 313.1932 15.08841979 38437,6917.874,95.437,541.145,538.3340000000002,0.0
52089.0,STARLINK-3722,PAYLOAD,2022-11-19 03:05:26,15.0883997,0.000193,53.2176,105.5707,47.3564,312.759,0.00015632,2.201e-05,0.0,0 STARLINK-3722,1 52089U 22029B   22323.12878324  .00002201  00000-0  15632-3 0  9991,2 52089  53.2176 105.5707 0001930  47.3564 312.7590 15.08839970 38500,6917.88,95.438,541.081,538.41,0.0
52089.0,STARLINK-3722,PAYLOAD,2022-11-19 09:26:59,15.08810922,0.0002051,53.2177,104.3814,54.8641,305.2543,0.00054497,8.389e-05,0.0,0 STARLINK-3722,1 52089U 22029B   22323.39374861  .00008389  00000-0  54497-3 0  9992,2 52089  53.2177 104.3814 0002051  54.8641 305.2543 15.08810922 38546,6917.969,95.439,541.253,538.415,0.0
52089.0,STARLINK-3722,PAYLOAD,2022-11-19 18:59:18,15.0884691,0.0001871,53.218,102.5971,50.4937,309.6221,-6.271300000000001e-05,-1.286e-05,0.0,0 STARLINK-3722,1 52089U 22029B   22323.79118447 -.00001286  00000-0 -62713-4 0  9994,2 52089  53.2180 102.5971 0001871  50.4937 309.6221 15.08846910 38607,6917.859,95.437,541.019,538.43,0.0
52089.0,STARLINK-3722,PAYLOAD,2022-11-20 12:28:31,15.08852707,0.000187,53.2182,99.3264,45.9229,314.1917,2.8544e-05,1.66e-06,0.0,0 STARLINK-3722,1 52089U 22029B   22324.51981234  .00000166  00000-0  28544-4 0  9995,2 52089  53.2182  99.3264 0001870  45.9229 314.1917 15.08852707 38715,6917.842,95.437,541.0,538.413,0.0
52089.0,STARLINK-3722,PAYLOAD,2022-11-20 15:39:17,15.08857264,0.0001971,53.2183,98.7326,44.1566,315.9583,1.5636000000000004e-06,-2.63e-06,0.0,0 STARLINK-3722,1 52089U 22029B   22324.65228909 -.00000263  00000-0  15636-5 0  9991,2 52089  53.2183  98.7326 0001971  44.1566 315.9583 15.08857264 38738,6917.828,95.436,541.056,538.3290000000002,0.0
